NORAD_CAT_ID,OBJECT_NAME,OBJECT_TYPE,EPOCH,MEAN_MOTION,ECCENTRICITY,INCLINATION,RA_OF_ASC_NODE,ARG_OF_PERICENTER,MEAN_ANOMALY,BSTAR,MEAN_MOTION_DOT,MEAN_MOTION_DDOT,TLE_LINE0,TLE_LINE1,TLE_LINE2,SEMIMAJOR_AXIS,PERIOD,APOGEE,PERIGEE,DECAYED
55311.0,STARLINK-5312,PAYLOAD,2023-03-23 19:54:49,15.69935589,0.0003513,70.0018,250.9399,267.8653,92.214,4.02e-05,4.626e-05,0.0,0 STARLINK-5312,1 55311U 23010AU  23082.82974267  .00004626  00000-0  40200-4 0  9999,2 55311  70.0018 250.9399 0003513 267.8653  92.2140 15.69935589 10446,6737.218,91.724,361.45,356.716,0.0
55311.0,STARLINK-5312,PAYLOAD,2023-03-23 21:26:34,15.69941965,0.0003531,70.003,250.7612,268.8997,91.1795,5.6835e-05,6.632e-05,0.0,0 STARLINK-5312,1 55311U 23010AU  23082.89345661  .00006632  00000-0  56835-4 0  9996,2 55311  70.0030 250.7612 0003531 268.8997  91.1795 15.69941965 11640,6737.2,91.723,361.444,356.686,0.0
55311.0,STARLINK-5312,PAYLOAD,2023-03-24 12:44:05,15.6993299,0.0003977,70.0017,248.9695,263.9064,96.1679,4.0206e-05,4.626e-05,0.0,0 STARLINK-5312,1 55311U 23010AU  23083.53062360  .00004626  00000-0  40206-4 0  9996,2 55311  70.0017 248.9695 0003977 263.9064  96.1679 15.69932990 10553,6737.226,91.724,361.77,356.411,0.0
55311.0,STARLINK-5312,PAYLOAD,2023-03-24 14:15:52,15.69891836,0.0003989,70.0009,248.7901,272.1834,87.8905,-7.6857e-05,-9.433e-05,0.0,0 STARLINK-5312,1 55311U 23010AU  23083.59435290 -.00009433  00000-0 -76857-4 0  9992,2 55311  70.0009 248.7901 0003989 272.1834  87.8905 15.69891836 11757,6737.343,91.726,361.896,356.521,0.0
55311.0,STARLINK-5312,PAYLOAD,2023-03-24 17:19:21,15.69916528,0.0003505,70.0017,248.4322,262.0242,98.0556,-5.2724e-06,-8.46e-06,0.0,0 STARLINK-5312,1 55311U 23010AU  23083.72178104 -.00000846  00000-0 -52724-5 0  9992,2 55311  70.0017 248.4322 0003505 262.0242  98.0556 15.69916528 10587,6737.273,91.725,361.499,356.776,0.0
55311.0,STARLINK-5312,PAYLOAD,2023-03-24 20:22:52,15.69900614,0.0003694,70.0005,248.0733,263.414,96.6635,-6.2102e-05,-7.667e-05,0.0,0 STARLINK-5312,1 55311U 23010AU  23083.84922052 -.00007667  00000-0 -62102-4 0  9992,2 55311  70.0005 248.0733 0003694 263.4140  96.6635 15.69900614 10601,6737.318,91.726,361.672,356.695,0.0
55311.0,STARLINK-5312,PAYLOAD,2023-03-25 04:01:38,15.69909666,0.0003943,70.0017,247.1774,263.6801,96.3946,-1.878e-05,-2.469e-05,0.0,0 STARLINK-5312,1 55311U 23010AU  23084.16780415 -.00002469  00000-0 -18780-4 0  9991,2 55311  70.0017 247.1774 0003943 263.6801  96.3946 15.69909666 10655,6737.292,91.725,361.814,356.501,0.0
55311.0,STARLINK-5312,PAYLOAD,2023-03-25 11:40:26,15.6985886,0.0003422,70.0015,246.2827,257.9746,102.1067,-0.00012821,-0.00015559,0.0,0 STARLINK-5312,1 55311U 23010AU  23084.48641659 -.00015559  00000-0 -12821-3 0  9995,2 55311  70.0015 246.2827 0003422 257.9746 102.1067 15.69858860 10703,6737.438,91.728,361.608,356.997,0.0
55311.0,STARLINK-5312,PAYLOAD,2023-03-25 20:50:56,15.69915801,0.0003724,70.0018,245.2078,262.6408,97.4364,0.00010115,0.00011964,0.0,0 STARLINK-5312,1 55311U 23010AU  23084.86871318  .00011964  00000-0  10115-3 0  9992,2 55311  70.0018 245.2078 0003724 262.6408  97.4364 15.69915801 10767,6737.275,91.725,361.649,356.631,0.0
55311.0,STARLINK-5312,PAYLOAD,2023-03-26 12:08:25,15.69985862,0.0003801,70.0013,243.4167,272.4786,87.5974,0.00028849,0.00034711,0.0,0 STARLINK-5312,1 55311U 23010AU  23085.50585370  .00034711  00000-0  28849-3 0  9992,2 55311  70.0013 243.4167 0003801 272.4786  87.5974 15.69985862 10867,6737.074,91.721,361.5,356.379,0.0
55311.0,STARLINK-5312,PAYLOAD,2023-03-26 19:47:11,15.69941283,0.0003945,70.0005,242.52,266.1851,93.8893,0.00010969,0.00013008,0.0,0 STARLINK-5312,1 55311U 23010AU  23085.82444336  .00013008  00000-0  10969-3 0  9993,2 55311  70.0005 242.5200 0003945 266.1851  93.8893 15.69941283 10913,6737.202,91.723,361.725,356.409,0.0
55311.0,STARLINK-5312,PAYLOAD,2023-03-27 03:25:57,15.69929147,0.0005102,70.0027,241.6247,263.53,96.5314,2.7302e-05,3.072e-05,0.0,0 STARLINK-5312,1 55311U 23010AU  23086.14302305  .00003072  00000-0  27302-4 0  9998,2 55311  70.0027 241.6247 0005102 263.5300  96.5314 15.69929147 10963,6737.237,91.724,362.539,355.664,0.0
55311.0,STARLINK-5312,PAYLOAD,2023-03-27 12:36:28,15.69925808,0.0003926,70.0014,240.5492,266.2797,93.7949,2.1348e-05,2.355e-05,0.0,0 STARLINK-5312,1 55311U 23010AU  23086.52532752  .00002355  00000-0  21348-4 0  9998,2 55311  70.0014 240.5492 0003926 266.2797  93.7949 15.69925808 12214,6737.246,91.724,361.756,356.466,0.0
55311.0,STARLINK-5312,PAYLOAD,2023-03-27 20:15:13,15.69937437,0.0003902,70.0006,239.6534,266.0356,94.0394,9.295e-06,9.05e-06,0.0,0 STARLINK-5312,1 55311U 23010AU  23086.84390274  .00000905  00000-0  92950-5 0  9991,2 55311  70.0006 239.6534 0003902 266.0356  94.0394 15.69937437 12268,6737.213,91.723,361.707,356.449,0.0
55311.0,STARLINK-5312,PAYLOAD,2023-03-28 13:04:28,15.69942973,0.0003652,70.0016,237.6841,257.5511,102.5276,1.4733e-05,1.56e-05,0.0,0 STARLINK-5312,1 55311U 23010AU  23087.54477562  .00001560  00000-0  14733-4 0  9995,2 55311  70.0016 237.6841 0003652 257.5511 102.5276 15.69942973 12375,6737.197,91.723,361.523,356.602,0.0
55311.0,STARLINK-5312,PAYLOAD,2023-03-28 16:07:59,15.69935583,0.000393,70.0017,237.3261,270.299,89.7756,5.6399e-06,4.66e-06,0.0,0 STARLINK-5312,1 55311U 23010AU  23087.67221239  .00000466  00000-0  56399-5 0  9996,2 55311  70.0017 237.3261 0003930 270.2990  89.7756 15.69935583 11200,6737.218,91.724,361.731,356.436,0.0
55311.0,STARLINK-5312,PAYLOAD,2023-03-28 19:11:29,15.6993161,0.0004039,70.0009,236.967,269.1464,90.9269,2.8794e-06,1.33e-06,0.0,0 STARLINK-5312,1 55311U 23010AU  23087.79964684  .00000133  00000-0  28794-5 0  9996,2 55311  70.0009 236.9670 0004039 269.1464  90.9269 15.69931610 12418,6737.23,91.724,361.816,356.373,0.0
55311.0,STARLINK-5312,PAYLOAD,2023-03-29 12:00:44,15.69952158,0.0003961,70.0013,234.9968,262.469,97.6056,7.4779e-05,8.799e-05,0.0,0 STARLINK-5312,1 55311U 23010AU  23088.50051964  .00008799  00000-0  74779-4 0  9993,2 55311  70.0013 234.9968 0003961 262.4690  97.6056 15.69952158 12521,6737.171,91.723,361.704,356.367,0.0
55311.0,STARLINK-5312,PAYLOAD,2023-03-29 13:32:31,15.69905777,0.000327,70.002,234.8187,244.8554,115.2303,-7.7859e-05,-9.556e-05,0.0,0 STARLINK-5312,1 55311U 23010AU  23088.56425024 -.00009556  00000-0 -77859-4 0  9997,2 55311  70.0020 234.8187 0003270 244.8554 115.2303 15.69905777 11343,6737.304,91.725,361.372,356.965,0.0
55311.0,STARLINK-5312,PAYLOAD,2023-03-29 21:11:17,15.69905916,0.0003292,70.0018,233.9227,263.8801,96.202,-5.8563e-05,-7.243e-05,0.0,0 STARLINK-5312,1 55311U 23010AU  23088.88283762 -.00007243  00000-0 -58563-4 0  9995,2 55311  70.0018 233.9227 0003292 263.8801  96.2020 15.69905916 12581,6737.303,91.725,361.386,356.95,0.0
55311.0,STARLINK-5312,PAYLOAD,2023-03-30 12:28:48,15.69922,0.0003796,70.0004,232.1305,266.2468,93.8294,2.2422e-05,2.484e-05,0.0,0 STARLINK-5312,1 55311U 23010AU  23089.52000116  .00002484  00000-0  22422-4 0  9992,2 55311  70.0004 232.1305 0003796 266.2468  93.8294 15.69922000 11497,6737.257,91.724,361.68,356.565,0.0
55311.0,STARLINK-5312,PAYLOAD,2023-03-30 18:35:48,15.69930517,0.0003478,70.001,231.415,266.1291,93.9507,6.9264e-05,8.126e-05,0.0,0 STARLINK-5312,1 55311U 23010AU  23089.77486796  .00008126  00000-0  69264-4 0  9995,2 55311  70.0010 231.4150 0003478 266.1291  93.9507 15.69930517 12721,6737.233,91.724,361.441,356.755,0.0
55311.0,STARLINK-5312,PAYLOAD,2023-03-31 12:56:50,15.69918088,0.000358,70.0008,229.2636,268.5008,91.5778,2.8479e-05,3.212e-05,0.0,0 STARLINK-5312,1 55311U 23010AU  23090.53947373  .00003212  00000-0  28479-4 0  9998,2 55311  70.0008 229.2636 0003580 268.5008  91.5778 15.69918088 11652,6737.268,91.725,361.545,356.721,0.0
55311.0,STARLINK-5312,PAYLOAD,2023-03-31 19:03:50,15.69938109,0.0002888,70.002,228.551,254.91,105.1776,8.1398e-05,9.591e-05,0.0,0 STARLINK-5312,1 55311U 23010AU  23090.79433567  .00009591  00000-0  81398-4 0  9996,2 55311  70.0020 228.5510 0002888 254.9100 105.1776 15.69938109 11691,6737.211,91.723,361.022,357.13,0.0
55311.0,STARLINK-5312,PAYLOAD,2023-04-01 11:53:06,15.69929225,0.0003663,70.0036,226.5799,274.4717,85.606,3.0672e-05,3.478e-05,0.0,0 STARLINK-5312,1 55311U 23010AU  23091.49521947  .00003478  00000-0  30672-4 0  9991,2 55311  70.0036 226.5799 0003663 274.4717  85.6060 15.69929225 11808,6737.236,91.724,361.569,356.634,0.0
55311.0,STARLINK-5312,PAYLOAD,2023-04-01 18:00:07,15.69911632,0.0003441,70.0011,225.8616,268.6124,91.4677,-2.7387e-05,-3.503e-05,0.0,0 STARLINK-5312,1 55311U 23010AU  23091.75008997 -.00003503  00000-0 -27387-4 0  9995,2 55311  70.0011 225.8616 0003441 268.6124  91.4677 15.69911632 11848,6737.287,91.725,361.47,356.834,0.0
55311.0,STARLINK-5312,PAYLOAD,2023-04-02 07:45:52,15.69949755,0.0003698,70.0005,224.2472,271.9024,88.1748,9.7746e-05,0.0001157,0.0,0 STARLINK-5312,1 55311U 23010AU  23092.32352913  .00011570  00000-0  97746-4 0  9996,2 55311  70.0005 224.2472 0003698 271.9024  88.1748 15.69949755 11933,6737.178,91.723,361.534,356.551,0.0
55311.0,STARLINK-5312,PAYLOAD,2023-04-02 12:21:08,15.69912087,0.0003117,70.0007,223.71,265.74,94.344,-7.8825e-05,-9.674e-05,0.0,0 STARLINK-5312,1 55311U 23010AU  23092.51468483 -.00009674  00000-0 -78825-4 0  9998,2 55311  70.0007 223.7100 0003117 265.7400  94.3440 15.69912087 11961,6737.286,91.725,361.251,357.051,0.0
55311.0,STARLINK-5312,PAYLOAD,2023-04-02 18:28:09,15.69912649,0.0003309,70.0011,222.9924,279.8084,80.2738,-8.0631e-05,-9.892e-05,0.0,0 STARLINK-5312,1 55311U 23010AU  23092.76955409 -.00009892  00000-0 -80631-4 0  9994,2 55311  70.0011 222.9924 0003309 279.8084  80.2738 15.69912649 13193,6737.284,91.725,361.378,356.92,0.0
55311.0,STARLINK-5312,PAYLOAD,2023-04-03 11:17:26,15.69926552,0.0002786,70.0021,221.0236,257.1262,102.9623,3.0293e-05,3.432e-05,0.0,0 STARLINK-5312,1 55311U 23010AU  23093.47044000  .00003432  00000-0  30293-4 0  9990,2 55311  70.0021 221.0236 0002786 257.1262 102.9623 15.69926552 12119,6737.244,91.724,360.986,357.232,0.0
